[{"OBJECT_NAME":"YAOGAN-22","OBJECT_ID":"2014-063A","EPOCH":"2026-03-09T22:32:09.245760","MEAN_MOTION":13.15527162,"ECCENTRICITY":0.00066374,"INCLINATION":100.7539,"RA_OF_ASC_NODE":218.6258,"ARG_OF_PERICENTER":57.4372,"MEAN_ANOMALY":302.7379,"EPHEMERIS_TYPE":0,"CLASSIFICATION_TYPE":"U","NORAD_CAT_ID":40275,"ELEMENT_SET_NO":999,"REV_AT_EPOCH":54676,"BSTAR":6.3182543e-5,"MEAN_MOTION_DOT":-2.3e-7,"MEAN_MOTION_DDOT":0},{"OBJECT_NAME":"ONEWEB-0717","OBJECT_ID":"2023-004AQ","EPOCH":"2026-03-09T22:21:29.116800","MEAN_MOTION":13.17648959,"ECCENTRICITY":0.00019704,"INCLINATION":87.916,"RA_OF_ASC_NODE":25.5567,"ARG_OF_PERICENTER":59.5364,"MEAN_ANOMALY":300.5962,"EPHEMERIS_TYPE":0,"CLASSIFICATION_TYPE":"U","NORAD_CAT_ID":55178,"ELEMENT_SET_NO":999,"REV_AT_EPOCH":15456,"BSTAR":9.1849263e-5,"MEAN_MOTION_DOT":4.9e-7,"MEAN_MOTION_DDOT":0}]
